ORBCOMM FM103           
1 40091U 14040F   24152.07458506  .00001203  00000+0  30434-3 0  9994
2 40091  47.0069  20.3320 0002166 314.1910  45.8797 14.56650554525425
ORBCOMM FM114           
1 41179U 15081A   24151.49016688  .00001504  00000+0  37052-3 0  9991
2 41179  47.0033 292.3545 0001056 350.8535   9.2330 14.56706100448645
ORBCOMM FM119           
1 41180U 15081B   24151.18676260  .00000958  00000+0  24997-3 0  9993
2 41180  46.9997 202.9792 0000269  81.9869 278.1046 14.56633911449856
ORBCOMM FM105           
1 41181U 15081C   24152.08949458  .00000414  00000+0  16429-3 0  9994
2 41181  46.9998 167.5264 0001387  15.9673 344.1250 14.44414953445600
ORBCOMM FM110           
1 41182U 15081D   24152.49634159  .00001644  00000+0  40177-3 0  9992
2 41182  47.0022 287.0215 0002655 226.5058 133.5607 14.56704053448842
ORBCOMM FM118           
1 41183U 15081E   24152.47388572  .00001620  00000+0  39645-3 0  9998
2 41183  47.0045 287.4400 0002632 224.1327 135.9348 14.56692451448842
ORBCOMM FM112           
1 41184U 15081F   24151.50614797  .00001176  00000+0  29791-3 0  9990
2 41184  46.9980 200.6793 0000588 337.8621  22.2238 14.56706441449840
ORBCOMM FM113           
1 41185U 15081G   24151.55202792  .00001214  00000+0  30647-3 0  9999
2 41185  46.9997 200.7346 0000285 292.2833  67.8022 14.56697371449833
